
AT&T T-16
1 44333U 19034A   26169.87471625 -.00000122  00000+0  00000+0 0  9992
2 44333   0.0226  66.9403 0000810 239.0528 175.1501  1.00271203 25659

AZERSPACE 2 (IS-38)
1 43632U 18074A   26169.90383875  .00000130  00000+0  00000+0 0  9997
2 43632   0.0173  14.6973 0001499  84.9449 177.9809  1.00273868 28468

DIRECTV 14
1 40333U 14078B   26169.65710524 -.00000132  00000+0  00000+0 0  9992
2 40333   0.0104   8.1118 0000506 318.6715  77.4309  1.00271140 42058

DIRECTV 15
1 40663U 15026A   26170.01713637 -.00000109  00000+0  00000+0 0  9996
2 40663   0.0150  57.2665 0000200 252.5514 220.7096  1.00275519 40486

FM-6
1 39360U 13058A   26170.15706777  .00000000  00000+0  00000+0 0  9992
2 39360   0.0346  50.7410 0002648 119.5495  37.3371  1.00253413 46099

GALAXY 30 (G-30)
1 46114U 20056C   26170.23659112  .00000000  00000+0  00000+0 0  9992
2 46114   0.0206  10.8347 0002288  76.7843 140.0223  1.00271369 21312

GALAXY 31 (G-31)
1 54243U 22153A   26170.22739881  .00000007  00000+0  00000+0 0  9992
2 54243   0.0206  80.7226 0001116 358.7754 148.8057  1.00271779  7151

GALAXY 32 (G-32)
1 54244U 22153B   26169.94820568 -.00000181  00000+0  00000+0 0  9997
2 54244   0.0125  22.5955 0002081  12.0145 122.9243  1.00271680 13160

GALAXY 33 (G-33)
1 54026U 22128A   26170.32566166  .00000073  00000+0  00000+0 0  9991
2 54026   0.0194  48.2442 0001694  35.5287 168.0130  1.00270175 13766

GALAXY 34 (G-34)
1 54027U 22128B   26169.64307292  .00000052  00000+0  00000+0 0  9995
2 54027   0.0104  30.3042 0001513  67.6466 271.4326  1.00274211 13920

GALAXY 35 (G-35)
1 54741U 22170A   26170.23285883 -.00000168  00000+0  00000+0 0  9992
2 54741   0.0127  63.0227 0001834  21.5282 173.6254  1.00271935 12918

GALAXY 36 (G-36)
1 54742U 22170B   26170.23372550 -.00000191  00000+0  00000+0 0  9997
2 54742   0.0035 352.5196 0002560  91.1528 178.9266  1.00272268 12798

GALAXY 37 (G-37)
1 57493U 23112A   26170.32489160  .00000042  00000+0  00000+0 0  9990
2 57493   0.0039  36.6791 0002005  49.2765 171.5512  1.00271185 10563

HORIZONS-3E
1 43633U 18074B   26169.64319762 -.00000037  00000+0  00000+0 0  9990
2 43633   0.0047 132.2714 0000757 140.4157  34.7443  1.00271097 28353

INTELSAT 21 (IS-21)
1 38749U 12045A   26170.07172684 -.00000291  00000+0  00000+0 0  9995
2 38749   0.0182  12.4024 0001393  86.2934 136.4237  1.00272683 50544

INTELSAT 23 (IS-23)
1 38867U 12057A   26170.22916560 -.00000291  00000+0  00000+0 0  9995
2 38867   0.0099 325.5761 0000134  86.5042 244.8525  1.00267375 49974

INTELSAT 30 (IS-30)
1 40271U 14062A   26170.24364323 -.00000157  00000+0  00000+0 0  9992
2 40271   0.0281  53.7801 0001240 330.6226 235.7245  1.00270952  6819

INTELSAT 31 (IS-31)
1 41581U 16035A   26170.08993880 -.00000156  00000+0  00000+0 0  9996
2 41581   0.0171 269.3791 0001127 318.6423 336.6183  1.00264216 36703

INTELSAT 32E (IS-32E)
1 41945U 17007B   26170.17150841 -.00000275  00000+0  00000+0 0  9994
2 41945   0.0180  10.1464 0000655 310.2644 325.5432  1.00270576 34241

INTELSAT 34 (IS-34)
1 40874U 15039A   26169.95523742 -.00000292  00000+0  00000+0 0  9994
2 40874   0.0090  11.9069 0000386 322.0452 221.6210  1.00269371 39651

INTELSAT 35E (IS-35E)
1 42818U 17041A   26170.17324176  .00000000  00000+0  00000+0 0  9991
2 42818   0.0194  13.3558 0002038  75.0828 206.8380  1.00270762 32835

INTELSAT 36 (IS-36)
1 41747U 16053A   26169.99747454 -.00000031  00000+0  00000+0 0  9994
2 41747   0.0124  11.1204 0002121 322.4188   1.2761  1.00271257 35971

INTELSAT 37E (IS-37E)
1 42950U 17059A   26170.24781436 -.00000147  00000+0  00000+0 0  9994
2 42950   0.0180  12.9149 0002562 100.3269 225.4551  1.00271081 32080

INTELSAT 39 (IS-39)
1 44476U 19049B   26170.19230852  .00000028  00000+0  00000+0 0  9992
2 44476   0.0190 337.6290 0001056 354.8240  66.1468  1.00268615 25147

SKY MEXICO-1
1 40664U 15026B   26170.26146912 -.00000241  00000+0  00000+0 0  9997
2 40664   0.0149  53.8986 0002092  51.0677 177.8468  1.00272314 40470
